$$SOE
2459580.500000000, A.D. 2022-Jan-01 00:00:00.0000, -1.786896409715597E+08, 2.842253367565267E+08, -1.412963189773992E+07,
2459587.500000000, A.D. 2022-Jan-08 00:00:00.0000, -1.895392577139120E+08, 2.793620172745777E+08, -1.352880764115520E+07,
2459594.500000000, A.D. 2022-Jan-15 00:00:00.0000, -2.001503937911396E+08, 2.741470625992023E+08, -1.291095211934882E+07,
2459601.500000000, A.D. 2022-Jan-22 00:00:00.0000, -2.105137120127468E+08, 2.685925463177189E+08, -1.227710293358696E+07,
2459608.500000000, A.D. 2022-Jan-29 00:00:00.0000, -2.206204689092211E+08, 2.627105771482249E+08, -1.162828440288498E+07,
2459615.500000000, A.D. 2022-Feb-05 00:00:00.0000, -2.304624941525448E+08, 2.565132758395484E+08, -1.096550652457121E+07,
2459622.500000000, A.D. 2022-Feb-12 00:00:00.0000, -2.400321678988644E+08, 2.500127533564174E+08, -1.028976436884521E+07,
2459629.500000000, A.D. 2022-Feb-19 00:00:00.0000, -2.493223975307691E+08, 2.432210925579678E+08, -9.602037579999372E+06,
2459636.500000000, A.D. 2022-Feb-26 00:00:00.0000, -2.583265952385180E+08, 2.361503325063748E+08, -8.903289913545907E+06,
2459643.500000000, A.D. 2022-Mar-05 00:00:00.0000, -2.670386563787060E+08, 2.288124546505970E+08, -8.194468863772124E+06,
2459650.500000000, A.D. 2022-Mar-12 00:00:00.0000, -2.754529384654835E+08, 2.212193706813288E+08, -7.476505396415725E+06,
2459657.500000000, A.D. 2022-Mar-19 00:00:00.0000, -2.835642407841536E+08, 2.133829119496535E+08, -6.750313779892936E+06,
2459664.500000000, A.D. 2022-Mar-26 00:00:00.0000, -2.913677846524025E+08, 2.053148203120570E+08, -6.016791507376418E+06,
2459671.500000000, A.D. 2022-Apr-02 00:00:00.0000, -2.988591942980126E+08, 1.970267402200158E+08, -5.276819311005637E+06,
2459678.500000000, A.D. 2022-Apr-09 00:00:00.0000, -3.060344781081849E+08, 1.885302119394045E+08, -4.531261284064643E+06,
2459685.500000000, A.D. 2022-Apr-16 00:00:00.0000, -3.128900099123586E+08, 1.798366664408100E+08, -3.780965082465097E+06,
2459692.500000000, A.D. 2022-Apr-23 00:00:00.0000, -3.194225115808972E+08, 1.709574229389562E+08, -3.026761993437424E+06,
2459699.500000000, A.D. 2022-Apr-30 00:00:00.0000, -3.256290388201155E+08, 1.619036867397052E+08, -2.269466877318323E+06,
2459706.500000000, A.D. 2022-May-07 00:00:00.0000, -3.315069671014138E+08, 1.526865453341765E+08, -1.509878418716647E+06,
2459713.500000000, A.D. 2022-May-14 00:00:00.0000, -3.370539763250411E+08, 1.433169656915769E+08, -7.487795599421710E+05,
2459720.500000000, A.D. 2022-May-21 00:00:00.0000, -3.422680362434175E+08, 1.338057934269932E+08, 1.306213651664555E+04,
2459727.500000000, A.D. 2022-May-28 00:00:00.0000, -3.471473931173239E+08, 1.241637528149382E+08, 7.748941659019515E+05,
2459734.500000000, A.D. 2022-Jun-04 00:00:00.0000, -3.516905573156556E+08, 1.144014472719609E+08, 1.535978752473824E+06,
2459741.500000000, A.D. 2022-Jun-11 00:00:00.0000, -3.558962916982920E+08, 1.045293602499570E+08, 2.295592504910037E+06,
2459748.500000000, A.D. 2022-Jun-18 00:00:00.0000, -3.597636007266471E+08, 9.455785649727483E+07, 3.053026056762271E+06,
2459755.500000000, A.D. 2022-Jun-25 00:00:00.0000, -3.632917202550634E+08, 8.449718360305163E+07, 3.807583689594407E+06,
2459762.500000000, A.D. 2022-Jul-02 00:00:00.0000, -3.664801078509083E+08, 7.435747371215573E+07, 4.558582923882697E+06,
2459769.500000000, A.D. 2022-Jul-09 00:00:00.0000, -3.693284332342197E+08, 6.414874554481667E+07, 5.305354058856294E+06,
2459776.500000000, A.D. 2022-Jul-16 00:00:00.0000, -3.718365688725376E+08, 5.388090776405919E+07, 6.047239757111926E+06,
2459783.500000000, A.D. 2022-Jul-23 00:00:00.0000, -3.740045829110138E+08, 4.356376373140049E+07, 6.783594883954464E+06,
2459790.500000000, A.D. 2022-Jul-30 00:00:00.0000, -3.758327343389331E+08, 3.320701426382178E+07, 7.513786321338840E+06,
2459797.500000000, A.D. 2022-Aug-06 00:00:00.0000, -3.773214667770041E+08, 2.282025901293376E+07, 8.237192481197075E+06,
2459804.500000000, A.D. 2022-Aug-13 00:00:00.0000, -3.784714016860234E+08, 1.241299919396313E+07, 8.953202820758708E+06,
2459811.500000000, A.D. 2022-Aug-20 00:00:00.0000, -3.792833325472661E+08, 1.994641132667680E+06, 9.661217464019366E+06,
2459818.500000000, A.D. 2022-Aug-27 00:00:00.0000, -3.797582199332447E+08, -8.425500121219272E+06, 1.036064686475412E+07,
2459825.500000000, A.D. 2022-Sep-03 00:00:00.0000, -3.798971872077115E+08, -1.883819724522122E+07, 1.105091148046182E+07,
2459832.500000000, A.D. 2022-Sep-10 00:00:00.0000, -3.797015167506526E+08, -2.923430715535551E+07, 1.173144145208178E+07,
2459839.500000000, A.D. 2022-Sep-17 00:00:00.0000, -3.791726466655459E+08, -3.960476759751311E+07, 1.240167628761730E+07,
2459846.500000000, A.D. 2022-Sep-24 00:00:00.0000, -3.783121678966438E+08, -4.994059388672514E+07, 1.306106454080315E+07,
2459853.500000000, A.D. 2022-Oct-01 00:00:00.0000, -3.771218215053404E+08, -6.023287583123818E+07, 1.370906346173939E+07,
2459860.500000000, A.D. 2022-Oct-08 00:00:00.0000, -3.756034956865491E+08, -7.047277433148284E+07, 1.434513862548652E+07,
2459867.500000000, A.D. 2022-Oct-15 00:00:00.0000, -3.737592234425780E+08, -8.065151646583375E+07, 1.496876372257461E+07,
2459874.500000000, A.D. 2022-Oct-22 00:00:00.0000, -3.715911830809674E+08, -9.076039076032270E+07, 1.557942057404140E+07,
2459881.500000000, A.D. 2022-Oct-29 00:00:00.0000, -3.691016990277254E+08, -1.007907452519789E+08, 1.617659892994489E+07,
2459888.500000000, A.D. 2022-Nov-05 00:00:00.0000, -3.662932408497249E+08, -1.107339856201638E+08, 1.675979608309518E+07,
2459895.500000000, A.D. 2022-Nov-12 00:00:00.0000, -3.631684224451076E+08, -1.205815721328175E+08, 1.732851658219161E+07,
2459902.500000000, A.D. 2022-Nov-19 00:00:00.0000, -3.597300021176717E+08, -1.303250163757649E+08, 1.788227203269833E+07,
2459909.500000000, A.D. 2022-Nov-26 00:00:00.0000, -3.559808832723722E+08, -1.399558781750785E+08, 1.842058092946106E+07,
2459916.500000000, A.D. 2022-Dec-03 00:00:00.0000, -3.519241155646374E+08, -1.494657627346004E+08, 1.894296850573500E+07,
2459923.500000000, A.D. 2022-Dec-10 00:00:00.0000, -3.475628964544642E+08, -1.588463179802704E+08, 1.944896659689289E+07,
2459930.500000000, A.D. 2022-Dec-17 00:00:00.0000, -3.429005731361525E+08, -1.680892321479100E+08, 1.993811351535782E+07,
2459937.500000000, A.D. 2022-Dec-24 00:00:00.0000, -3.379406447304884E+08, -1.771862316933485E+08, 2.040995392218693E+07,
2459944.500000000, A.D. 2022-Dec-31 00:00:00.0000, -3.326867643789648E+08, -1.861290794313056E+08, 2.086403867218760E+07,
2459951.500000000, A.D. 2023-Jan-07 00:00:00.0000, -3.271427411150743E+08, -1.949095719550141E+08, 2.129992470090652E+07,
2459958.500000000, A.D. 2023-Jan-14 00:00:00.0000, -3.213125434772440E+08, -2.035195358550084E+08, 2.171717517541031E+07,
2459965.500000000, A.D. 2023-Jan-21 00:00:00.0000, -3.152003055070167E+08, -2.119508259275324E+08, 2.211535970964069E+07,
2459972.500000000, A.D. 2023-Jan-28 00:00:00.0000, -3.088103314666390E+08, -2.201953255876736E+08, 2.249405429327209E+07,
2459979.500000000, A.D. 2023-Feb-04 00:00:00.0000, -3.021470994868040E+08, -2.282449464776419E+08, 2.285284120231741E+07,
2459986.500000000, A.D. 2023-Feb-11 00:00:00.0000, -2.952152659390998E+08, -2.360916274813466E+08, 2.319130904184308E+07,
2459993.500000000, A.D. 2023-Feb-18 00:00:00.0000, -2.880196705942275E+08, -2.437273339886298E+08, 2.350905286055461E+07,
2460000.500000000, A.D. 2023-Feb-25 00:00:00.0000, -2.805653423020338E+08, -2.511440575948756E+08, 2.380567430126694E+07,
2460007.500000000, A.D. 2023-Mar-04 00:00:00.0000, -2.728575050917563E+08, -2.583338162432618E+08, 2.408078178120813E+07,
2460014.500000000, A.D. 2023-Mar-11 00:00:00.0000, -2.649015846645365E+08, -2.652886548359866E+08, 2.433399070169216E+07,
2460021.500000000, A.D. 2023-Mar-18 00:00:00.0000, -2.567032152305683E+08, -2.720006463920407E+08, 2.456492368100786E+07,
2460028.500000000, A.D. 2023-Mar-25 00:00:00.0000, -2.482682464857754E+08, -2.784618938289695E+08, 2.477321079028733E+07,
2460035.500000000, A.D. 2023-Apr-01 00:00:00.0000, -2.396027503007223E+08, -2.846645320078202E+08, 2.495848978794652E+07,
2460042.500000000, A.D. 2023-Apr-08 00:00:00.0000, -2.307130277329376E+08, -2.906007288508049E+08, 2.512040651169181E+07,
2460049.500000000, A.D. 2023-Apr-15 00:00:00.0000, -2.216056186931153E+08, -2.962626866748056E+08, 2.525861555440164E+07,
2460056.500000000, A.D. 2023-Apr-22 00:00:00.0000, -2.122873124484046E+08, -3.016426468345845E+08, 2.537278081103395E+07,
2460063.500000000, A.D. 2023-Apr-29 00:00:00.0000, -2.027651562208327E+08, -3.067328954688422E+08, 2.546257583287476E+07,
2460070.500000000, A.D. 2023-May-06 00:00:00.0000, -1.930464636324335E+08, -3.115257686144269E+08, 2.552768429938279E+07,
2460077.500000000, A.D. 2023-May-13 00:00:00.0000, -1.831388239612411E+08, -3.160136576289660E+08, 2.556780062709688E+07,
2460084.500000000, A.D. 2023-May-20 00:00:00.0000, -1.730501119565356E+08, -3.201890154614541E+08, 2.558263065636590E+07,
2460091.500000000, A.D. 2023-May-27 00:00:00.0000, -1.627884979969454E+08, -3.240443638523411E+08, 2.557189239774613E+07,
2460098.500000000, A.D. 2023-Jun-03 00:00:00.0000, -1.523624585061741E+08, -3.275723014945724E+08, 2.553531683711320E+07,
2460105.500000000, A.D. 2023-Jun-10 00:00:00.0000, -1.417807865709038E+08, -3.307655132318590E+08, 2.547264879903165E+07,
2460112.500000000, A.D. 2023-Jun-17 00:00:00.0000, -1.310526026359850E+08, -3.336167804208921E+08, 2.538364785878702E+07,
2460119.500000000, A.D. 2023-Jun-24 00:00:00.0000, -1.201873649167681E+08, -3.361189924714160E+08, 2.526808928218748E+07,
2460126.500000000, A.D. 2023-Jul-01 00:00:00.0000, -1.091948792302892E+08, -3.382651588059220E+08, 2.512576504148699E+07,
2460133.500000000, A.D. 2023-Jul-08 00:00:00.0000, -9.808530986576746E+07, -3.400484204840897E+08, 2.495648513119882E+07,
2460140.500000000, A.D. 2023-Jul-15 00:00:00.0000, -8.686919270430009E+07, -3.414620643882063E+08, 2.476007907141566E+07,
$$EOE